NORAD_CAT_ID,OBJECT_NAME,OBJECT_TYPE,EPOCH,MEAN_MOTION,ECCENTRICITY,INCLINATION,RA_OF_ASC_NODE,ARG_OF_PERICENTER,MEAN_ANOMALY,BSTAR,MEAN_MOTION_DOT,MEAN_MOTION_DDOT,TLE_LINE0,TLE_LINE1,TLE_LINE2,SEMIMAJOR_AXIS,PERIOD,APOGEE,PERIGEE,DECAYED
53176.0,STARLINK-4294,PAYLOAD,2024-04-17 00:21:06,15.088727,0.0001611,53.2193,14.0802,114.7195,245.3965,0.00031184,4.683e-05,0.0,0 STARLINK-4294,1 53176U 22083AW  24108.01466417  .00004683  00000-0  31184-3 0  9992,2 53176  53.2193  14.0802 0001611 114.7195 245.3965 15.08872700 97782,6917.78,95.435,540.76,538.531,0.0
53176.0,STARLINK-4294,PAYLOAD,2024-04-17 21:01:09,15.08836211,0.0001544,53.217,10.2131,77.9256,282.1909,2.5307e-05,1.15e-06,0.0,0 STARLINK-4294,1 53176U 22083AW  24108.87580539  .00000115  00000-0  25307-4 0  9995,2 53176  53.2170  10.2131 0001544  77.9256 282.1909 15.08836211 97271,6917.892,95.438,540.825,538.689,0.0
53176.0,STARLINK-4294,PAYLOAD,2024-04-17 22:36:32,15.08834873,0.0001425,53.2175,9.917,106.5128,253.6021,-8.492e-05,-1.639e-05,0.0,0 STARLINK-4294,1 53176U 22083AW  24108.94204295 -.00001639  00000-0 -84920-4 0  9995,2 53176  53.2175   9.9170 0001425 106.5128 253.6021 15.08834873 97921,6917.896,95.438,540.747,538.775,0.0
53176.0,STARLINK-4294,PAYLOAD,2024-04-18 04:58:06,15.08811368,0.0002441,53.2181,8.7258,21.8046,338.305,-0.00042629,-7.061e-05,0.0,0 STARLINK-4294,1 53176U 22083AW  24109.20701859 -.00007061  00000-0 -42629-3 0  9997,2 53176  53.2181   8.7258 0002441  21.8046 338.3050 15.08811368 97960,6917.968,95.439,541.522,538.144,0.0
53176.0,STARLINK-4294,PAYLOAD,2024-04-18 20:51:57,15.08829021,0.0001532,53.2195,5.7541,63.0409,297.0739,-4.6429e-05,-1.027e-05,0.0,0 STARLINK-4294,1 53176U 22083AW  24109.86941721 -.00001027  00000-0 -46429-4 0  9992,2 53176  53.2195   5.7541 0001532  63.0409 297.0739 15.08829021 98060,6917.914,95.438,540.839,538.719,0.0
53176.0,STARLINK-4294,PAYLOAD,2024-04-18 22:27:20,15.08827742,0.0001753,53.2187,5.4563,50.7067,309.408,-4.873e-05,-1.063e-05,0.0,0 STARLINK-4294,1 53176U 22083AW  24109.93565921 -.00001063  00000-0 -48730-4 0  9991,2 53176  53.2187   5.4563 0001753  50.7067 309.4080 15.08827742 97435,6917.918,95.438,540.996,538.57,0.0
53176.0,STARLINK-4294,PAYLOAD,2024-04-19 00:02:42,15.08847025,0.0001563,53.2186,5.1609,98.5072,261.6097,2.0269e-05,3.5e-07,0.0,0 STARLINK-4294,1 53176U 22083AW  24110.00188576  .00000035  00000-0  20269-4 0  9991,2 53176  53.2186   5.1609 0001563  98.5072 261.6097 15.08847025 98082,6917.859,95.437,540.805,538.643,0.0
53176.0,STARLINK-4294,PAYLOAD,2024-04-19 20:42:44,15.08840349,0.0001798,53.2191,1.2947,97.201,262.9186,0.00051381,7.899e-05,0.0,0 STARLINK-4294,1 53176U 22083AW  24110.86301582  .00007899  00000-0  51381-3 0  9992,2 53176  53.2191   1.2947 0001798  97.2010 262.9186 15.08840349 98218,6917.879,95.438,540.988,538.5,0.0
53176.0,STARLINK-4294,PAYLOAD,2024-04-19 22:18:06,15.08862489,0.0001912,53.2191,0.997,110.1529,249.9669,0.00082252,0.00012835,0.0,0 STARLINK-4294,1 53176U 22083AW  24110.92924607  .00012835  00000-0  82252-3 0  9995,2 53176  53.2191   0.9970 0001912 110.1529 249.9669 15.08862489 97587,6917.812,95.436,540.999,538.354,0.0
53176.0,STARLINK-4294,PAYLOAD,2024-04-20 03:04:16,15.08875328,0.0001754,53.219,0.0989,98.6269,261.4922,0.00095218,0.00014913,0.0,0 STARLINK-4294,1 53176U 22083AW  24111.12796299  .00014913  00000-0  95218-3 0  9997,2 53176  53.2190   0.0989 0001754  98.6269 261.4922 15.08875328 98254,6917.772,95.435,540.851,538.424,0.0
53176.0,STARLINK-4294,PAYLOAD,2024-04-20 20:33:32,15.08818299,0.0001636,53.2192,356.8357,119.6564,240.4591,-0.00051954,-8.542e-05,0.0,0 STARLINK-4294,1 53176U 22083AW  24111.85662243 -.00008542  00000-0 -51954-3 0  9990,2 53176  53.2192 356.8357 0001636 119.6564 240.4591 15.08818299 98363,6917.947,95.439,540.943,538.68,0.0
53176.0,STARLINK-4294,PAYLOAD,2024-04-21 01:19:41,15.0881799,0.0001426,53.2192,355.9405,84.6959,275.4196,-0.00041374,-6.863e-05,0.0,0 STARLINK-4294,1 53176U 22083AW  24112.05534691 -.00006863  00000-0 -41374-3 0  9997,2 53176  53.2192 355.9405 0001426  84.6959 275.4196 15.08817990 97751,6917.948,95.439,540.799,538.826,0.0
53176.0,STARLINK-4294,PAYLOAD,2024-04-21 20:24:18,15.08846078,0.0001299,53.2192,352.3697,99.2261,260.8878,9.3037e-06,-1.4e-06,0.0,0 STARLINK-4294,1 53176U 22083AW  24112.85021150 -.00000140  00000-0  93037-5 0  9992,2 53176  53.2192 352.3697 0001299  99.2261 260.8878 15.08846078 98510,6917.862,95.437,540.625,538.828,0.0
53176.0,STARLINK-4294,PAYLOAD,2024-04-21 21:59:41,15.08850396,0.0001878,53.2189,352.0758,75.2632,284.8568,0.00017982,2.576e-05,0.0,0 STARLINK-4294,1 53176U 22083AW  24112.91645679  .00002576  00000-0  17982-3 0  9994,2 53176  53.2189 352.0758 0001878  75.2632 284.8568 15.08850396 97889,6917.849,95.437,541.013,538.414,0.0
53176.0,STARLINK-4294,PAYLOAD,2024-04-21 23:35:04,15.08870892,0.0001333,53.2192,351.7751,85.8248,274.2897,0.00060961,9.435e-05,0.0,0 STARLINK-4294,1 53176U 22083AW  24112.98268589  .00009435  00000-0  60961-3 0  9998,2 53176  53.2192 351.7751 0001333  85.8248 274.2897 15.08870892 98532,6917.786,95.436,540.573,538.729,0.0
53176.0,STARLINK-4294,PAYLOAD,2024-04-22 20:15:06,15.08843433,0.0001254,53.2184,347.9146,123.4875,236.6237,0.00026517,3.935e-05,0.0,0 STARLINK-4294,1 53176U 22083AW  24113.84382128  .00003935  00000-0  26517-3 0  9998,2 53176  53.2184 347.9146 0001254 123.4875 236.6237 15.08843433 98660,6917.87,95.437,540.602,538.867,0.0
53176.0,STARLINK-4294,PAYLOAD,2024-04-22 21:50:29,15.0884508,0.0001327,53.2184,347.6174,119.3487,240.7637,0.0002719,4.043e-05,0.0,0 STARLINK-4294,1 53176U 22083AW  24113.91006071  .00004043  00000-0  27190-3 0  9995,2 53176  53.2184 347.6174 0001327 119.3487 240.7637 15.08845080 98033,6917.865,95.437,540.648,538.812,0.0
53176.0,STARLINK-4294,PAYLOAD,2024-04-23 21:41:15,15.08852838,0.000131,53.2181,343.161,86.7426,273.3716,-0.00011193,-2.069e-05,0.0,0 STARLINK-4294,1 53176U 22083AW  24114.90365626 -.00002069  00000-0 -11193-3 0  9993,2 53176  53.2181 343.1610 0001310  86.7426 273.3716 15.08852838 98183,6917.841,95.437,540.612,538.8,0.0
53176.0,STARLINK-4294,PAYLOAD,2024-04-24 19:56:40,15.08839762,0.0002242,53.2182,338.9967,145.1694,214.9445,0.00013461,1.855e-05,0.0,0 STARLINK-4294,1 53176U 22083AW  24115.83101976  .00001855  00000-0  13461-3 0  9992,2 53176  53.2182 338.9967 0002242 145.1694 214.9445 15.08839762 98960,6917.881,95.438,541.297,538.195,0.0
53176.0,STARLINK-4294,PAYLOAD,2024-04-24 21:32:03,15.08840069,0.0001318,53.2195,338.7016,108.2287,251.8848,0.00016092,2.274e-05,0.0,0 STARLINK-4294,1 53176U 22083AW  24115.89726290  .00002274  00000-0  16092-3 0  9999,2 53176  53.2195 338.7016 0001318 108.2287 251.8848 15.08840069 98338,6917.88,95.438,540.657,538.833,0.0
53176.0,STARLINK-4294,PAYLOAD,2024-04-25 19:47:27,15.08838893,0.0001166,53.2205,334.5417,92.5068,267.6058,2.1441e-05,5.3e-07,0.0,0 STARLINK-4294,1 53176U 22083AW  24116.82462645  .00000053  00000-0  21441-4 0  9992,2 53176  53.2205 334.5417 0001166  92.5068 267.6058 15.08838893 99119,6917.884,95.438,540.555,538.942,0.0
53176.0,STARLINK-4294,PAYLOAD,2024-04-26 06:55:09,15.08846335,0.0001189,53.2199,332.4467,86.7301,273.3827,6.9196e-05,8.14e-06,0.0,0 STARLINK-4294,1 53176U 22083AW  24117.28829897  .00000814  00000-0  69196-4 0  9993,2 53176  53.2199 332.4467 0001189  86.7301 273.3827 15.08846335 99188,6917.861,95.437,540.549,538.903,0.0
53176.0,STARLINK-4294,PAYLOAD,2024-04-27 13:07:28,15.08843054,0.0001539,53.2183,326.7997,97.8965,262.2202,-3.4565e-05,-8.38e-06,0.0,0 STARLINK-4294,1 53176U 22083AW  24118.54686162 -.00000838  00000-0 -34565-4 0  9999,2 53176  53.2183 326.7997 0001539  97.8965 262.2202 15.08843054 99373,6917.871,95.437,540.801,538.671,0.0
53176.0,STARLINK-4294,PAYLOAD,2024-04-27 21:04:24,15.08840106,7.89e-05,53.2172,325.3163,98.6749,261.4333,-0.00011848,-2.173e-05,0.0,0 STARLINK-4294,1 53176U 22083AW  24118.87806161 -.00002173  00000-0 -11848-3 0  9990,2 53176  53.2172 325.3163 0000789  98.6749 261.4333 15.08840106 98781,6917.88,95.438,540.291,539.199,0.0
53176.0,STARLINK-4294,PAYLOAD,2024-04-28 06:36:43,15.08839432,9.53e-05,53.2179,323.5318,82.0562,278.0538,-0.00010105,-1.896e-05,0.0,0 STARLINK-4294,1 53176U 22083AW  24119.27550280 -.00001896  00000-0 -10105-3 0  9999,2 53176  53.2179 323.5318 0000953  82.0562 278.0538 15.08839432 98841,6917.882,95.438,540.406,539.088,0.0
53176.0,STARLINK-4294,PAYLOAD,2024-04-28 20:55:12,15.08843525,9.27e-05,53.218,320.8539,84.2998,275.81,-1.408e-05,-5.12e-06,0.0,0 STARLINK-4294,1 53176U 22083AW  24119.87166689 -.00000512  00000-0 -14080-4 0  9992,2 53176  53.2180 320.8539 0000927  84.2998 275.8100 15.08843525 99575,6917.87,95.437,540.376,539.093,0.0
53176.0,STARLINK-4294,PAYLOAD,2024-04-28 22:30:34,15.08847053,0.0001003,53.2185,320.5572,88.4775,271.6332,1.972e-05,2.6e-07,0.0,0 STARLINK-4294,1 53176U 22083AW  24119.93790371  .00000026  00000-0  19720-4 0  9994,2 53176  53.2185 320.5572 0001003  88.4775 271.6332 15.08847053 98940,6917.859,95.437,540.418,539.03,0.0
53176.0,STARLINK-4294,PAYLOAD,2024-04-29 06:27:30,15.08844619,0.0001157,53.2196,319.0687,80.3068,279.8055,-6.3671e-05,-1.301e-05,0.0,0 STARLINK-4294,1 53176U 22083AW  24120.26910665 -.00001301  00000-0 -63671-4 0  9995,2 53176  53.2196 319.0687 0001157  80.3068 279.8055 15.08844619 98990,6917.866,95.437,540.532,538.931,0.0
53176.0,STARLINK-4294,PAYLOAD,2024-04-29 22:21:22,15.08843231,0.0001056,53.2184,316.0942,71.0036,289.1071,0.00011551,1.551e-05,0.0,0 STARLINK-4294,1 53176U 22083AW  24120.93150511  .00001551  00000-0  11551-3 0  9999,2 53176  53.2184 316.0942 0001056  71.0036 289.1071 15.08843231 99091,6917.871,95.437,540.466,539.005,0.0
53176.0,STARLINK-4294,PAYLOAD,2024-04-30 06:18:17,15.08846104,0.0001068,53.218,314.6083,69.7224,290.3883,2.1169e-05,4.9e-07,0.0,0 STARLINK-4294,1 53176U 22083AW  24121.26270496  .00000049  00000-0  21169-4 0  9999,2 53176  53.2180 314.6083 0001068  69.7224 290.3883 15.08846104 99146,6917.862,95.437,540.466,538.988,0.0
